NORAD_CAT_ID,OBJECT_NAME,OBJECT_TYPE,EPOCH,MEAN_MOTION,ECCENTRICITY,INCLINATION,RA_OF_ASC_NODE,ARG_OF_PERICENTER,MEAN_ANOMALY,BSTAR,MEAN_MOTION_DOT,MEAN_MOTION_DDOT,TLE_LINE0,TLE_LINE1,TLE_LINE2,SEMIMAJOR_AXIS,PERIOD,APOGEE,PERIGEE,DECAYED
53786.0,STARLINK-4631,PAYLOAD,2022-11-25 22:00:00,15.48436295,0.0001450999999999,53.2174,255.912,56.9519,183.7871,-0.0081545,-0.00417544,0.0,0 STARLINK-4631,1 53786U 22111P   22329.91667824 -.00417544  00000-0 -81545-2 0  9999,2 53786  53.2174 255.9120 0001451  56.9519 183.7871 15.48436295  1309,6799.437,92.997,422.288,420.315,0.0
53786.0,STARLINK-4631,PAYLOAD,2022-11-26 14:00:01,15.47839679,0.0001545,53.2176,252.7348,41.2325,317.144,-0.0086585,-0.00433298,0.0,0 STARLINK-4631,1 53786U 22111P   22330.58334491 -.00433298  00000-0 -86585-2 0  9998,2 53786  53.2176 252.7348 0001545  41.2325 317.1440 15.47839679  1301,6801.184,93.033,424.1,421.99800000000016,0.0
53786.0,STARLINK-4631,PAYLOAD,2022-11-26 22:00:00,15.47527531,0.000145,53.2175,251.1466,49.9429,6.7125,-0.0085212999999999,-0.00422393,0.0,0 STARLINK-4631,1 53786U 22111P   22330.91667824 -.00422393  00000-0 -85213-2 0  9995,2 53786  53.2175 251.1466 0001450  49.9429   6.7125 15.47527531 11975,6802.099,93.052,424.95,422.977,0.0
53786.0,STARLINK-4631,PAYLOAD,2022-11-27 14:00:01,15.46928365,0.0001667,53.2175,247.9736,40.5267,131.5765,-0.0089238999999999,-0.00432655,0.0,0 STARLINK-4631,1 53786U 22111P   22331.58334491 -.00432655  00000-0 -89239-2 0  9994,2 53786  53.2175 247.9736 0001667  40.5267 131.5765 15.46928365  1307,6803.855,93.088,426.854,424.586,0.0
53786.0,STARLINK-4631,PAYLOAD,2022-11-27 22:00:00,15.46613069,0.0001538,53.2173,246.388,48.9317,180.3559,-0.0086577999999999,-0.00416067,0.0,0 STARLINK-4631,1 53786U 22111P   22331.91667824 -.00416067  00000-0 -86578-2 0  9992,2 53786  53.2173 246.3880 0001538  48.9317 180.3559 15.46613069  1308,6804.78,93.107,427.691,425.598,0.0
53786.0,STARLINK-4631,PAYLOAD,2022-11-28 00:00:00,15.46550652,0.0001538,53.2174,245.9929,45.5829,287.9353,-0.0091169,-0.00436053,0.0,0 STARLINK-4631,1 53786U 22111P   22332.00001157 -.00436053  00000-0 -91169-2 0  9993,2 53786  53.2174 245.9929 0001538  45.5829 287.9353 15.46550652 12136,6804.9630000000025,93.11,427.874,425.781,0.0
53786.0,STARLINK-4631,PAYLOAD,2022-11-28 22:00:01,15.45704526,0.000134,53.2172,241.6352,55.3769,343.321,-0.009063,-0.00421748,0.0,0 STARLINK-4631,1 53786U 22111P   22332.91668981 -.00421748  00000-0 -90630-2 0  9994,2 53786  53.2172 241.6352 0001340  55.3769 343.3210 15.45704526  1306,6807.446,93.161,430.223,428.399,0.0
53786.0,STARLINK-4631,PAYLOAD,2022-11-29 06:00:00,15.45391292,0.0001594,53.2167,240.054,43.1996,51.1556,-0.0088171,-0.00406718,0.0,0 STARLINK-4631,1 53786U 22111P   22333.25001157 -.00406718  00000-0 -88171-2 0  9995,2 53786  53.2167 240.0540 0001594  43.1996  51.1556 15.45391292 12334,6808.366,93.18,431.316,429.145,0.0
53786.0,STARLINK-4631,PAYLOAD,2022-11-29 14:00:01,15.45105666,0.0001654,53.2172,238.4706,41.3339,108.4311,-0.0095138,-0.00433089,0.0,0 STARLINK-4631,1 53786U 22111P   22333.58335648 -.00433089  00000-0 -95138-2 0  9998,2 53786  53.2172 238.4706 0001654  41.3339 108.4311 15.45105666  1301,6809.205,93.198,432.196,429.943,0.0
53786.0,STARLINK-4631,PAYLOAD,2022-11-29 22:00:00,15.44794542,0.0001484,53.2171,236.8896,55.2033,149.4893,-0.0093638,-0.00422317,0.0,0 STARLINK-4631,1 53786U 22111P   22333.91667824 -.00422317  00000-0 -93638-2 0  9994,2 53786  53.2171 236.8896 0001484  55.2033 149.4893 15.44794542 12430,6810.119000000002,93.216,432.994,430.973,0.0
53786.0,STARLINK-4631,PAYLOAD,2022-11-30 14:00:01,15.44193862,0.0001329,53.2173,233.729,55.4471,258.1884,-0.009802,-0.00432514,0.0,0 STARLINK-4631,1 53786U 22111P   22334.58335648 -.00432514  00000-0 -98020-2 0  9994,2 53786  53.2173 233.7290 0001329  55.4471 258.1884 15.44193862  1302,6811.885,93.253,434.655,432.844,0.0
53786.0,STARLINK-4631,PAYLOAD,2022-11-30 22:00:00,15.43893041,0.0001406999999999,53.2175,232.1512,52.1878,315.2747,-0.010023,-0.00437481,0.0,0 STARLINK-4631,1 53786U 22111P   22334.91667824 -.00437481  00000-0 -10023-1 0  9999,2 53786  53.2175 232.1512 0001407  52.1878 315.2747 15.43893041 12586,6812.77,93.271,435.593,433.676,0.0
53786.0,STARLINK-4631,PAYLOAD,2022-12-01 14:00:01,15.43284473,0.0001512,53.2174,228.9938,46.2666,67.8887,-0.010208,-0.00436507,0.0,0 STARLINK-4631,1 53786U 22111P   22335.58334491 -.00436507  00000-0 -10208-1 0  9997,2 53786  53.2174 228.9938 0001512  46.2666  67.8887 15.43284473  1302,6814.56,93.307,437.456,435.395,0.0
53786.0,STARLINK-4631,PAYLOAD,2022-12-01 22:00:00,15.42969281,0.0001448,53.2174,227.4172,55.0631,111.8956,-0.009896,-0.00419596,0.0,0 STARLINK-4631,1 53786U 22111P   22335.91667824 -.00419596  00000-0 -98960-2 0  9994,2 53786  53.2174 227.4172 0001448  55.0631 111.8956 15.42969281  1307,6815.488,93.327,438.34,436.367,0.0
53786.0,STARLINK-4631,PAYLOAD,2022-12-02 06:00:00,15.426785,0.0001753,53.2171,225.8424,39.6891,179.6957,-0.010479,-0.00438891,0.0,0 STARLINK-4631,1 53786U 22111P   22336.25001157 -.00438891  00000-0 -10479-1 0  9990,2 53786  53.2171 225.8424 0001753  39.6891 179.6957 15.42678500 12790,6816.345,93.344,439.405,437.015,0.0
53786.0,STARLINK-4631,PAYLOAD,2022-12-02 14:00:01,15.42342872,0.00017,53.2172,224.2646,39.9677,231.5021,-0.0094291,-0.00392832,0.0,0 STARLINK-4631,1 53786U 22111P   22336.58334491 -.00392832  00000-0 -94291-2 0  9995,2 53786  53.2172 224.2646 0001700  39.9677 231.5021 15.42342872  1302,6817.334,93.364,440.358,438.04,0.0
53786.0,STARLINK-4631,PAYLOAD,2022-12-02 22:00:00,15.42037001,0.0001431999999999,53.2173,222.6908,55.9073,267.2663,-0.0094674,-0.00390496,0.0,0 STARLINK-4631,1 53786U 22111P   22336.91667824 -.00390496  00000-0 -94674-2 0  9990,2 53786  53.2173 222.6908 0001432  55.9073 267.2663 15.42037001  1309,6818.235,93.383,441.077,439.124,0.0
53786.0,STARLINK-4631,PAYLOAD,2022-12-03 08:00:01,15.41688332,0.000164,53.2169,220.7236,42.7275,74.5453,-0.010711,-0.00434176,0.0,0 STARLINK-4631,1 53786U 22111P   22337.33334491 -.00434176  00000-0 -10711-1 0  9991,2 53786  53.2169 220.7236 0001640  42.7275  74.5453 15.41688332 12964,6819.263000000001,93.404,442.247,440.01,0.0
53786.0,STARLINK-4631,PAYLOAD,2022-12-03 14:00:01,15.41438839,0.0001564,53.2171,219.5424,41.3167,24.1632,-0.010015,-0.00404168,0.0,0 STARLINK-4631,1 53786U 22111P   22337.58334491 -.00404168  00000-0 -10015-1 0  9993,2 53786  53.2171 219.5424 0001564  41.3167  24.1632 15.41438839  1303,6819.999,93.419,442.931,440.797,0.0
53786.0,STARLINK-4631,PAYLOAD,2022-12-03 22:00:00,15.41136534,0.0001425,53.2172,217.971,57.7899,58.2962,-0.010161,-0.0040584,0.0,0 STARLINK-4631,1 53786U 22111P   22337.91667824 -.00405840  00000-0 -10161-1 0  9999,2 53786  53.2172 217.9710 0001425  57.7899  58.2962 15.41136534  1304,6820.891,93.438,443.728,441.784,0.0
53786.0,STARLINK-4631,PAYLOAD,2022-12-04 14:00:01,15.40524534,0.0001635,53.217,214.8267,40.2655,175.9441,-0.01023,-0.0040064,0.0,0 STARLINK-4631,1 53786U 22111P   22338.58334491 -.00400640  00000-0 -10230-1 0  9994,2 53786  53.2170 214.8267 0001635  40.2655 175.9441 15.40524534  1304,6822.696999999999,93.475,445.67800000000005,443.447,0.0
53786.0,STARLINK-4631,PAYLOAD,2022-12-04 22:00:00,15.40226358,0.0001496,53.2172,213.2577,53.771,211.9471,-0.010517,-0.00407448,0.0,0 STARLINK-4631,1 53786U 22111P   22338.91667824 -.00407448  00000-0 -10517-1 0  9991,2 53786  53.2172 213.2577 0001496  53.7710 211.9471 15.40226358  1306,6823.578,93.493,446.463,444.422,0.0
53786.0,STARLINK-4631,PAYLOAD,2022-12-05 06:00:00,15.39938788,0.0001581,53.2169,211.6882,43.2509,271.6066,-0.011272,-0.00431212,0.0,0 STARLINK-4631,1 53786U 22111P   22339.25001157 -.00431212  00000-0 -11272-1 0  9995,2 53786  53.2169 211.6882 0001581  43.2509 271.6066 15.39938788 13253,6824.427,93.51,447.371,445.213,0.0
53786.0,STARLINK-4631,PAYLOAD,2022-12-05 14:00:01,15.39607521,0.0001665,53.2171,210.1176,41.2468,322.4716,-0.010291,-0.00391444,0.0,0 STARLINK-4631,1 53786U 22111P   22339.58335648 -.00391444  00000-0 -10291-1 0  9998,2 53786  53.2171 210.1176 0001665  41.2468 322.4716 15.39607521  1309,6825.406,93.53,448.407,446.135,0.0
53786.0,STARLINK-4631,PAYLOAD,2022-12-05 22:00:01,15.39336409,0.0001769,53.2174,208.5518,37.6921,14.4262,-0.011707,-0.00438613,0.0,0 STARLINK-4631,1 53786U 22111P   22339.91668981 -.00438613  00000-0 -11707-1 0  9997,2 53786  53.2174 208.5518 0001769  37.6921  14.4262 15.39336409  1309,6826.206999999999,93.547,449.28,446.865,0.0
53786.0,STARLINK-4631,PAYLOAD,2022-12-06 08:00:01,15.38955388,0.0001622,53.2173,206.5911,43.5644,158.4995,-0.011804,-0.00436823,0.0,0 STARLINK-4631,1 53786U 22111P   22340.33334491 -.00436823  00000-0 -11804-1 0  9990,2 53786  53.2173 206.5911 0001622  43.5644 158.4995 15.38955388 13429,6827.334,93.57,450.306,448.092,0.0
53786.0,STARLINK-4631,PAYLOAD,2022-12-06 14:00:01,15.38699187,0.0001776,53.2172,205.415,36.3621,111.5118,-0.010742,-0.00396311,0.0,0 STARLINK-4631,1 53786U 22111P   22340.58335648 -.00396311  00000-0 -10742-1 0  9999,2 53786  53.2172 205.4150 0001776  36.3621 111.5118 15.38699187  1309,6828.092,93.586,451.17,448.744,0.0
53786.0,STARLINK-4631,PAYLOAD,2022-12-06 22:00:00,15.38402222,0.0001663,53.2175,203.8506,46.5288,148.599,-0.011133,-0.00406216,0.0,0 STARLINK-4631,1 53786U 22111P   22340.91667824 -.00406216  00000-0 -11133-1 0  9991,2 53786  53.2175 203.8506 0001663  46.5288 148.5990 15.38402222  1306,6828.971,93.604,451.971,449.7,0.0
53786.0,STARLINK-4631,PAYLOAD,2022-12-07 14:00:01,15.37776526,0.000186,53.2171,200.7188,38.6751,250.0111,-0.010566,-0.00379091,0.0,0 STARLINK-4631,1 53786U 22111P   22341.58334491 -.00379091  00000-0 -10566-1 0  9995,2 53786  53.2171 200.7188 0001860  38.6751 250.0111 15.37776526 13611,6830.823,93.642,453.958,451.417,0.0
